ONEWEB-0134             
1 47280U 20100Y   23059.50245896 -.00000349  00000+0 -10056-2 0  9993
2 47280  87.8932 229.9618 0001404 108.9560 251.1721 13.12443310106698
ONEWEB-0134             
1 47280U 20100Y   23059.88364482 -.00000392  00000+0 -11252-2 0  9994
2 47280  87.8933 229.8860 0001406 109.3004 250.8276 13.12442830106740
ONEWEB-0134             
1 47280U 20100Y   23060.87472821 -.00000406  00000+0 -11640-2 0  9999
2 47280  87.8937 229.6892 0001424 109.7348 250.3935 13.12442260106870
ONEWEB-0134             
1 47280U 20100Y   23061.02720297 -.00000462  00000+0 -13195-2 0  9999
2 47280  87.8938 229.6589 0001432 109.7847 250.3436 13.12442029106898
ONEWEB-0134             
1 47280U 20100Y   23061.78957472 -.00000318  00000+0 -91800-3 0  9999
2 47280  87.8941 229.5076 0001433 110.2324 249.8958 13.12442354106994
ONEWEB-0134             
1 47280U 20100Y   23062.17076089 -.00000180  00000+0 -53455-3 0  9990
2 47280  87.8944 229.4319 0001428 110.2898 249.8384 13.12442315107043
ONEWEB-0134             
1 47280U 20100Y   23062.47570987 -.00000147  00000+0 -44388-3 0  9997
2 47280  87.8944 229.3714 0001437 110.4470 249.6813 13.12442558107087
ONEWEB-0134             
1 47280U 20100Y   23062.85689720 -.00000182  00000+0 -54059-3 0  9990
2 47280  87.8945 229.2957 0001434 110.8672 249.2610 13.12441794107139
